0 SL-18 DEB
1 28959U 93014AL  13266.60092084  .00012153  00000-0  19074-2 0  2535
2 28959 075.7510 011.4773 0101049 329.6256 020.3839 14.69224766502381
0 SL-18 DEB
1 28959U 93014AL  13269.59879401  .00025557  00000-0  40037-2 0  2548
2 28959 075.7508 006.2640 0098081 321.0498 038.8950 14.69383299502822
